[{"OBJECT_NAME":"STARLINK-4180","OBJECT_ID":"2022-086AN","EPOCH":"2026-03-09T13:20:37.458240","MEAN_MOTION":15.08833146,"ECCENTRICITY":0.00012973,"INCLINATION":53.2174,"RA_OF_ASC_NODE":184.7208,"ARG_OF_PERICENTER":99.3712,"MEAN_ANOMALY":260.7427,"EPHEMERIS_TYPE":0,"CLASSIFICATION_TYPE":"U","NORAD_CAT_ID":53278,"ELEMENT_SET_NO":999,"REV_AT_EPOCH":20117,"BSTAR":-5.1756097e-5,"MEAN_MOTION_DOT":-1.111e-5,"MEAN_MOTION_DDOT":0},{"OBJECT_NAME":"TIUNGSAT-1 (MO-46)","OBJECT_ID":"2000-057D","EPOCH":"2026-03-09T15:36:52.176096","MEAN_MOTION":15.01128781,"ECCENTRICITY":0.003692,"INCLINATION":64.5465,"RA_OF_ASC_NODE":82.7132,"ARG_OF_PERICENTER":302.2682,"MEAN_ANOMALY":57.4857,"EPHEMERIS_TYPE":0,"CLASSIFICATION_TYPE":"U","NORAD_CAT_ID":26548,"ELEMENT_SET_NO":999,"REV_AT_EPOCH":38128,"BSTAR":0.00030184,"MEAN_MOTION_DOT":3.762e-5,"MEAN_MOTION_DDOT":0}]
